{"version": 0.6, "generator": "Overpass API 0.7.62.7 375dc00a", "osm3s": {"timestamp_osm_base": "2025-06-09T18:15:26Z", "copyright": "The data included in this document is from www.openstreetmap.org. The data is made available under ODbL."}, "elements": [{"type": "node", "id": 3669778013, "lat": 14.7638416, "lon": -16.7965183, "tags": {"bench": "no", "bus": "yes", "highway": "bus_stop", "public_transport": "stop_position", "shelter": "yes"}}, {"type": "node", "id": 4678605797, "lat": 14.7611981, "lon": -17.1159928, "tags": {"bus": "yes", "highway": "bus_stop", "name": "Pouy\u00e9ne", "public_transport": "stop_position"}}, {"type": "node", "id": 4680784089, "lat": 14.9491408, "lon": -16.8229587, "tags": {"highway": "bus_stop", "name": "Arret Jakarta", "name:fr": "Arret Jakarta"}}, {"type": "node", "id": 4690339592, "lat": 14.9490662, "lon": -16.8231193, "tags": {"highway": "bus_stop", "name": "Arr\u00eat Tata", "name:fr": "Arr\u00eat Tata"}}, {"type": "node", "id": 4756093525, "lat": 14.9425129, "lon": -16.8109829, "tags": {"highway": "bus_stop", "name": "Keur Amadou Mbodj", "name:fr": "Keur Amadou Mbodj", "operator": "Dioulo Mbodj"}}, {"type": "node", "id": 5145579722, "lat": 14.9547613, "lon": -16.8176421, "tags": {"highway": "bus_stop", "name": "S\u00e9n\u00e9gal Dem Dikk"}}, {"type": "node", "id": 7003040294, "lat": 14.8000871, "lon": -16.9294372, "tags": {"highway": "bus_stop", "name": "DIDEC de Thi\u00e8s"}}, {"type": "node", "id": 8244464217, "lat": 14.7721512, "lon": -16.9318074, "tags": {"highway": "bus_stop", "name": "Arr\u00eat Caf\u00e9 gui"}}]}